ATLAS CENTAUR 2         
1 00694U 63047A   26157.39790098  .00002183  00000+0  25456-3 0  9993
2 00694  30.3534  59.7297 0546030 142.3465 221.6673 14.12493924144174
THOR AGENA D R/B        
1 00733U 64002A   26157.48196345  .00000209  00000+0  91673-4 0  9996
2 00733  99.1158 175.6364 0032898   2.0252 358.1058 14.34061294251025
SL-3 R/B                
1 00877U 64053B   26157.44928045  .00000181  00000+0  59214-4 0  9991
2 00877  65.0772  70.9968 0081194 264.4590  94.7245 14.61421869279767
SL-8 R/B                
1 02802U 67045B   26157.49826535  .00000281  00000+0  85185-4 0  9998
2 02802  74.0095 182.2225 0063864 169.3174 190.9359 14.45677876101855
SL-8 R/B                
1 03230U 68040B   26157.20598692  .00003843  00000+0  28087-3 0  9993
2 03230  74.0294 132.7476 0025957 287.7342  72.1014 15.03760083103313
OAO 2                   
1 03597U 68110A   26157.22380354  .00000195  00000+0  57668-4 0  9998
2 03597  34.9921 130.8939 0005709 193.2050 166.8492 14.47347544 31933
ISIS 1                  
1 03669U 69009A   26157.21665073  .00000080  00000+0  59578-4 0  9994
2 03669  88.4418 145.6054 1705971 270.4015  70.2661 11.30432348358538
SERT 2                  
1 04327U 70009A   26157.60043833 -.00000001  00000+0  55491-4 0  9999
2 04327  99.2839  95.8818 0004131 306.2768 226.6768 13.58738404791960
SL-3 R/B                
1 05118U 71028B   26157.66149552  .00057633  00000+0  50029-3 0  9994
2 05118  81.2334 301.5055 0013659 319.7741  40.2504 15.68748218  2594
ASTEX 1                 
1 05560U 71089A   26157.51989218  .00000427  00000+0  10844-3 0  9997
2 05560  92.7001 180.4203 0017106 137.9764 222.2758 14.50843351875188
SL-8 R/B                
1 05730U 71119B   26157.31505729  .00005637  00000+0  28956-3 0  9990
2 05730  73.8877   9.8417 0543838 318.0004  38.0618 14.39432402668236
OAO 3 (COPERNICUS)      
1 06153U 72065A   26157.28669196  .00000287  00000+0  63164-4 0  9993
2 06153  35.0040 152.5154 0006501 170.6430 206.6474 14.60054221859157
ATLAS CENTAUR R/B       
1 06155U 72065B   26157.26618540  .00001169  00000+0  16171-3 0  9995
2 06155  35.0000 146.5657 0033089  35.1394 325.1481 14.77898559854373
SL-8 R/B                
1 08459U 75112B   26157.53760435  .00000185  00000+0  69586-4 0  9997
2 08459  74.0602 215.4654 0016786 283.6646  76.2639 14.38241257644641
SL-3 R/B                
1 10114U 77057B   26157.54964901  .00014266  00000+0  27780-3 0  9997
2 10114  97.5842 333.5774 0005965 331.4801  28.6122 15.47659188682068
SEASAT 1                
1 10967U 78064A   26157.65680595  .00000347  00000+0  13511-3 0  9990
2 10967 108.0163 312.1846 0002105 241.5516 118.5417 14.46235255519370
SL-14 R/B               
1 11267U 79011B   26157.31094694  .00000587  00000+0  55260-4 0  9993
2 11267  82.5243  12.4767 0017361 118.8147 241.4819 14.92004497541995
SL-8 R/B                
1 11574U 79089B   26157.59336165  .00000261  00000+0  86619-4 0  9992
2 11574  74.0695 286.4680 0014827  74.5198 285.7595 14.42399192448923
SL-14 R/B               
1 11672U 80005B   26157.44940801  .00000523  00000+0  50290-4 0  9990
2 11672  82.5149 223.0253 0014582 223.2215 136.7861 14.91020461489711
SL-8 R/B                
1 12139U 81003B   26157.51149354  .00018871  00000+0  46750-3 0  9990
2 12139  82.9376 207.6889 0250457 228.6196 129.3265 15.13909306328109
SL-3 R/B                
1 12465U 81046B   26157.56157407  .00013533  00000+0  29433-3 0  9991
2 12465  81.2300 182.8669 0019359  72.7082 287.6278 15.43978436452132
SL-3 R/B                
1 12904U 81103B   26157.60243694  .00006198  00000+0  26830-3 0  9999
2 12904  81.1581 109.0670 0012582 353.7355   6.3717 15.22195760986751
SL-3 R/B                
1 13068U 82013B   26157.57752501  .00004173  00000+0  17684-3 0  9998
2 13068  81.1745  56.5100 0020769 238.0597 121.8616 15.22721528417878
SL-3 R/B                
1 13154U 82039B   26157.56844287  .00003743  00000+0  22365-3 0  9998
2 13154  81.1422 113.3574 0030065  30.6760 329.6215 15.10474008395054
SL-3 R/B                
1 13403U 82079B   26157.62307162  .00006207  00000+0  24081-3 0  9997
2 13403  81.1460  87.9811 0022908 222.0072 137.9406 15.25700316391253
SL-14 R/B               
1 13553U 82092B   26157.50654031  .00000497  00000+0  52936-4 0  9991
2 13553  82.5687  58.2967 0020602  11.0682 161.8690 14.86740240342129
SL-3 R/B                
1 13819U 83010B   26157.53024782  .00019232  00000+0  35341-3 0  9991
2 13819  81.1020 253.0867 0015964  97.9419 262.3640 15.48946883371685
SL-3 R/B                
1 14208U 83075B   26157.61038089  .00012102  00000+0  30064-3 0  9995
2 14208  97.6107 165.6843 0018787 270.5465  89.3628 15.40300999343837
COSMOS 1536             
1 14699U 84013A   26157.33575060  .00006920  00000+0  27591-3 0  9998
2 14699  82.5449  19.6523 0013470 337.0898  22.9737 15.24940882286124
SL-14 R/B               
1 14820U 84027B   26157.50888058  .00000477  00000+0  51545-4 0  9990
2 14820  82.5406 161.7310 0018997  43.3279 316.9427 14.86051803260829
