OBJECT_NAME,OBJECT_ID,EPOCH,MEAN_MOTION,ECCENTRICITY,INCLINATION,RA_OF_ASC_NODE,ARG_OF_PERICENTER,MEAN_ANOMALY,EPHEMERIS_TYPE,CLASSIFICATION_TYPE,NORAD_CAT_ID,ELEMENT_SET_NO,REV_AT_EPOCH,BSTAR,MEAN_MOTION_DOT,MEAN_MOTION_DDOT
ATLAS CENTAUR 2,1963-047A,2026-06-06T09:32:58.644672,14.12493924,.05460308,30.3534,59.7297,142.3465,221.6673,0,U,694,999,14417,.25455978E-3,.2183E-4,0
THOR AGENA D R/B,1964-002A,2026-06-06T11:34:01.642080,14.34061294,.00328986,99.1158,175.6364,2.0252,358.1058,0,U,733,999,25102,.91673197E-4,.209E-5,0
SL-3 R/B,1964-053B,2026-06-06T10:46:57.830880,14.61421869,.00811948,65.0772,70.9968,264.4590,94.7245,0,U,877,999,27976,.59214219E-4,.181E-5,0
SL-8 R/B,1967-045B,2026-06-06T11:57:30.126240,14.45677876,.00638641,74.0095,182.2225,169.3174,190.9359,0,U,2802,999,10185,.85184821E-4,.281E-5,0
SL-8 R/B,1968-040B,2026-06-06T04:56:37.269888,15.03760083,.00259576,74.0294,132.7476,287.7342,72.1014,0,U,3230,999,10331,.28086626E-3,.3843E-4,0
OAO 2,1968-110A,2026-06-06T05:22:16.625856,14.47347544,.0005709,34.9921,130.8939,193.2050,166.8492,0,U,3597,999,3193,.57668027E-4,.195E-5,0
ISIS 1,1969-009A,2026-06-06T05:11:58.623072,11.30432348,.17059717,88.4418,145.6054,270.4015,70.2661,0,U,3669,999,35853,.5957769E-4,.8E-6,0
SERT 2,1970-009A,2026-06-06T14:24:37.871712,13.58738404,.00041317,99.2839,95.8818,306.2768,226.6768,0,U,4327,999,79196,.55490566E-4,-.1E-7,0
SL-3 R/B,1971-028B,2026-06-06T15:52:33.212928,15.68748218,.0013659,81.2334,301.5055,319.7741,40.2504,0,U,5118,999,259,.50028569E-3,.57633E-3,0
ASTEX 1,1971-089A,2026-06-06T12:28:38.684352,14.50843351,.00171068,92.7001,180.4203,137.9764,222.2758,0,U,5560,999,87518,.10843908E-3,.427E-5,0
SL-8 R/B,1971-119B,2026-06-06T07:33:40.949856,14.39432402,.05438387,73.8877,9.8417,318.0004,38.0618,0,U,5730,999,66823,.28956023E-3,.5637E-4,0
OAO 3 (COPERNICUS),1972-065A,2026-06-06T06:52:50.185344,14.60054221,.0006501,35.0040,152.5154,170.6430,206.6474,0,U,6153,999,85915,.63164217E-4,.287E-5,0
ATLAS CENTAUR R/B,1972-065B,2026-06-06T06:23:18.418560,14.77898559,.00330892,35.0000,146.5657,35.1394,325.1481,0,U,6155,999,85437,.16171236E-3,.1169E-4,0
SL-8 R/B,1975-112B,2026-06-06T12:54:09.015840,14.38241257,.00167869,74.0602,215.4654,283.6646,76.2639,0,U,8459,999,64464,.69586484E-4,.185E-5,0
SL-3 R/B,1977-057B,2026-06-06T13:11:29.674464,15.47659188,.00059652,97.5842,333.5774,331.4801,28.6122,0,U,10114,999,68206,.27779633E-3,.14266E-3,0
SEASAT 1,1978-064A,2026-06-06T15:45:48.034080,14.46235255,.00021057,108.0163,312.1846,241.5516,118.5417,0,U,10967,999,51937,.1351071E-3,.347E-5,0
SL-14 R/B,1979-011B,2026-06-06T07:27:45.815616,14.92004497,.00173611,82.5243,12.4767,118.8147,241.4819,0,U,11267,999,54199,.55260269E-4,.587E-5,0
SL-8 R/B,1979-089B,2026-06-06T14:14:26.446560,14.42399192,.00148278,74.0695,286.4680,74.5198,285.7595,0,U,11574,999,44892,.86619411E-4,.261E-5,0
SL-14 R/B,1980-005B,2026-06-06T10:47:08.852064,14.91020461,.00145825,82.5149,223.0253,223.2215,136.7861,0,U,11672,999,48971,.5028997E-4,.523E-5,0
SL-8 R/B,1981-003B,2026-06-06T12:16:33.041856,15.13909306,.02504575,82.9376,207.6889,228.6196,129.3265,0,U,12139,999,32810,.46750421E-3,.18871E-3,0
SL-3 R/B,1981-046B,2026-06-06T13:28:39.999648,15.43978436,.00193594,81.2300,182.8669,72.7082,287.6278,0,U,12465,999,45213,.29432545E-3,.13533E-3,0
SL-3 R/B,1981-103B,2026-06-06T14:27:30.551616,15.22195760,.00125829,81.1581,109.0670,353.7355,6.3717,0,U,12904,999,98675,.2682999E-3,.6198E-4,0
SL-3 R/B,1982-013B,2026-06-06T13:51:38.160864,15.22721528,.00207697,81.1745,56.5100,238.0597,121.8616,0,U,13068,999,41787,.1768391E-3,.4173E-4,0
SL-3 R/B,1982-039B,2026-06-06T13:38:33.463968,15.10474008,.00300656,81.1422,113.3574,30.6760,329.6215,0,U,13154,999,39505,.22365495E-3,.3743E-4,0
SL-3 R/B,1982-079B,2026-06-06T14:57:13.387968,15.25700316,.00229087,81.1460,87.9811,222.0072,137.9406,0,U,13403,999,39125,.24080588E-3,.6207E-4,0
SL-14 R/B,1982-092B,2026-06-06T12:09:25.082784,14.86740240,.00206025,82.5687,58.2967,11.0682,161.8690,0,U,13553,999,34212,.52935797E-4,.497E-5,0
SL-3 R/B,1983-010B,2026-06-06T12:43:33.411648,15.48946883,.00159641,81.1020,253.0867,97.9419,262.3640,0,U,13819,999,37168,.35340687E-3,.19232E-3,0
SL-3 R/B,1983-075B,2026-06-06T14:38:56.908896,15.40300999,.00187873,97.6107,165.6843,270.5465,89.3628,0,U,14208,999,34383,.30063799E-3,.12102E-3,0
COSMOS 1536,1984-013A,2026-06-06T08:03:28.851840,15.24940882,.00134703,82.5449,19.6523,337.0898,22.9737,0,U,14699,999,28612,.27591055E-3,.692E-4,0
SL-14 R/B,1984-027B,2026-06-06T12:12:47.282112,14.86051803,.00189979,82.5406,161.7310,43.3279,316.9427,0,U,14820,999,26082,.51545336E-4,.477E-5,0
